CCSDS_OMM_VERS = 2.0
CREATION_DATE  = 
ORIGINATOR     = 

OBJECT_NAME    = CATSAT-1
OBJECT_ID      = 1998-067PZ
CENTER_NAME    = EARTH
REF_FRAME      = TEME
TIME_SYSTEM    = UTC
MEAN_ELEMENT_THEORY = SGP/SGP4

EPOCH          = 2020-12-15T01:38:28.992768
MEAN_MOTION    = 15.76004858
ECCENTRICITY   = .0001911
INCLINATION    = 51.6389
RA_OF_ASC_NODE = 115.3884
ARG_OF_PERICENTER = 22.7688
MEAN_ANOMALY   = 337.3396

EPHEMERIS_TYPE = 0
CLASSIFICATION_TYPE = U
NORAD_CAT_ID   = 44033
ELEMENT_SET_NO = 999
REV_AT_EPOCH   = 10679
BSTAR          = .35943E-3
MEAN_MOTION_DOT = .5681E-3
MEAN_MOTION_DDOT = 0

CCSDS_OMM_VERS = 2.0
CREATION_DATE  = 
ORIGINATOR     = 

OBJECT_NAME    = ISS DEB
OBJECT_ID      = 1998-067QA
CENTER_NAME    = EARTH
REF_FRAME      = TEME
TIME_SYSTEM    = UTC
MEAN_ELEMENT_THEORY = SGP/SGP4

EPOCH          = 2020-12-14T18:55:40.132416
MEAN_MOTION    = 15.56373426
ECCENTRICITY   = .0004715
INCLINATION    = 51.6382
RA_OF_ASC_NODE = 158.6591
ARG_OF_PERICENTER = 275.2361
MEAN_ANOMALY   = 84.8092

EPHEMERIS_TYPE = 0
CLASSIFICATION_TYPE = U
NORAD_CAT_ID   = 44303
ELEMENT_SET_NO = 999
REV_AT_EPOCH   = 8782
BSTAR          = .10931E-3
MEAN_MOTION_DOT = .7374E-4
MEAN_MOTION_DDOT = 0

CCSDS_OMM_VERS = 2.0
CREATION_DATE  = 
ORIGINATOR     = 

OBJECT_NAME    = ISS DEB
OBJECT_ID      = 1998-067QB
CENTER_NAME    = EARTH
REF_FRAME      = TEME
TIME_SYSTEM    = UTC
MEAN_ELEMENT_THEORY = SGP/SGP4

EPOCH          = 2020-12-14T13:59:08.852640
MEAN_MOTION    = 15.74699330
ECCENTRICITY   = .0005316
INCLINATION    = 51.6338
RA_OF_ASC_NODE = 136.1961
ARG_OF_PERICENTER = 271.5802
MEAN_ANOMALY   = 88.4588

EPHEMERIS_TYPE = 0
CLASSIFICATION_TYPE = U
NORAD_CAT_ID   = 44304
ELEMENT_SET_NO = 999
REV_AT_EPOCH   = 8811
BSTAR          = .49906E-3
MEAN_MOTION_DOT = .7493E-3
MEAN_MOTION_DDOT = 0

CCSDS_OMM_VERS = 2.0
CREATION_DATE  = 
ORIGINATOR     = 

OBJECT_NAME    = ISS DEB
OBJECT_ID      = 1998-067QC
CENTER_NAME    = EARTH
REF_FRAME      = TEME
TIME_SYSTEM    = UTC
MEAN_ELEMENT_THEORY = SGP/SGP4

EPOCH          = 2020-12-14T13:30:36.811584
MEAN_MOTION    = 15.86741255
ECCENTRICITY   = .000633
INCLINATION    = 51.6249
RA_OF_ASC_NODE = 126.0172
ARG_OF_PERICENTER = 310.1970
MEAN_ANOMALY   = 49.8480

EPHEMERIS_TYPE = 0
CLASSIFICATION_TYPE = U
NORAD_CAT_ID   = 44305
ELEMENT_SET_NO = 999
REV_AT_EPOCH   = 8824
BSTAR          = .72732E-3
MEAN_MOTION_DOT = .193792E-2
MEAN_MOTION_DDOT = 0

CCSDS_OMM_VERS = 2.0
CREATION_DATE  = 
ORIGINATOR     = 

OBJECT_NAME    = ISS DEB
OBJECT_ID      = 1998-067QD
CENTER_NAME    = EARTH
REF_FRAME      = TEME
TIME_SYSTEM    = UTC
MEAN_ELEMENT_THEORY = SGP/SGP4

EPOCH          = 2020-12-14T05:14:48.660000
MEAN_MOTION    = 15.56587461
ECCENTRICITY   = .0005902
INCLINATION    = 51.6368
RA_OF_ASC_NODE = 161.5237
ARG_OF_PERICENTER = 269.4883
MEAN_ANOMALY   = 90.5432

EPHEMERIS_TYPE = 0
CLASSIFICATION_TYPE = U
NORAD_CAT_ID   = 44306
ELEMENT_SET_NO = 999
REV_AT_EPOCH   = 8774
BSTAR          = .12702E-3
MEAN_MOTION_DOT = .8724E-4
MEAN_MOTION_DDOT = 0

CCSDS_OMM_VERS = 2.0
CREATION_DATE  = 
ORIGINATOR     = 

OBJECT_NAME    = RAAVANA-1
OBJECT_ID      = 1998-067QE
CENTER_NAME    = EARTH
REF_FRAME      = TEME
TIME_SYSTEM    = UTC
MEAN_ELEMENT_THEORY = SGP/SGP4

EPOCH          = 2020-12-13T18:11:55.908672
MEAN_MOTION    = 15.63570481
ECCENTRICITY   = .0004694
INCLINATION    = 51.6355
RA_OF_ASC_NODE = 152.4670
ARG_OF_PERICENTER = 303.1751
MEAN_ANOMALY   = 56.8793

EPHEMERIS_TYPE = 0
CLASSIFICATION_TYPE = U
NORAD_CAT_ID   = 44329
ELEMENT_SET_NO = 999
REV_AT_EPOCH   = 8499
BSTAR          = .30163E-3
MEAN_MOTION_DOT = .28123E-3
MEAN_MOTION_DDOT = 0

CCSDS_OMM_VERS = 2.0
CREATION_DATE  = 
ORIGINATOR     = 

OBJECT_NAME    = UGUISU
OBJECT_ID      = 1998-067QF
CENTER_NAME    = EARTH
REF_FRAME      = TEME
TIME_SYSTEM    = UTC
MEAN_ELEMENT_THEORY = SGP/SGP4

EPOCH          = 2020-12-14T17:48:57.748320
MEAN_MOTION    = 15.63453077
ECCENTRICITY   = .0004758
INCLINATION    = 51.6333
RA_OF_ASC_NODE = 147.7412
ARG_OF_PERICENTER = 307.4600
MEAN_ANOMALY   = 52.5962

EPHEMERIS_TYPE = 0
CLASSIFICATION_TYPE = U
NORAD_CAT_ID   = 44330
ELEMENT_SET_NO = 999
REV_AT_EPOCH   = 8512
BSTAR          = .26933E-3
MEAN_MOTION_DOT = .24927E-3
MEAN_MOTION_DDOT = 0

CCSDS_OMM_VERS = 2.0
CREATION_DATE  = 
ORIGINATOR     = 

OBJECT_NAME    = NEPALISAT-1
OBJECT_ID      = 1998-067QG
CENTER_NAME    = EARTH
REF_FRAME      = TEME
TIME_SYSTEM    = UTC
MEAN_ELEMENT_THEORY = SGP/SGP4

EPOCH          = 2020-12-14T16:59:34.434816
MEAN_MOTION    = 15.63614296
ECCENTRICITY   = .0004704
INCLINATION    = 51.6337
RA_OF_ASC_NODE = 147.5137
ARG_OF_PERICENTER = 310.8202
MEAN_ANOMALY   = 49.2384

EPHEMERIS_TYPE = 0
CLASSIFICATION_TYPE = U
NORAD_CAT_ID   = 44331
ELEMENT_SET_NO = 999
REV_AT_EPOCH   = 8513
BSTAR          = .27123E-3
MEAN_MOTION_DOT = .25269E-3
MEAN_MOTION_DDOT = 0

CCSDS_OMM_VERS = 2.0
CREATION_DATE  = 
ORIGINATOR     = 

OBJECT_NAME    = SPOOQY-1
OBJECT_ID      = 1998-067QH
CENTER_NAME    = EARTH
REF_FRAME      = TEME
TIME_SYSTEM    = UTC
MEAN_ELEMENT_THEORY = SGP/SGP4

EPOCH          = 2020-12-14T03:40:36.280416
MEAN_MOTION    = 15.63334194
ECCENTRICITY   = .0003867
INCLINATION    = 51.6344
RA_OF_ASC_NODE = 150.5731
ARG_OF_PERICENTER = 309.7396
MEAN_ANOMALY   = 50.3258

EPHEMERIS_TYPE = 0
CLASSIFICATION_TYPE = U
NORAD_CAT_ID   = 44332
ELEMENT_SET_NO = 999
REV_AT_EPOCH   = 8500
BSTAR          = .2866E-3
MEAN_MOTION_DOT = .26435E-3
MEAN_MOTION_DDOT = 0

CCSDS_OMM_VERS = 2.0
CREATION_DATE  = 
ORIGINATOR     = 

OBJECT_NAME    = RED-EYE 1 (PINOT)
OBJECT_ID      = 1998-067QJ
CENTER_NAME    = EARTH
REF_FRAME      = TEME
TIME_SYSTEM    = UTC
MEAN_ELEMENT_THEORY = SGP/SGP4

EPOCH          = 2020-12-14T05:22:05.745504
MEAN_MOTION    = 15.56219840
ECCENTRICITY   = .0006129
INCLINATION    = 51.6388
RA_OF_ASC_NODE = 162.3682
ARG_OF_PERICENTER = 269.5114
MEAN_ANOMALY   = 90.5175

EPHEMERIS_TYPE = 0
CLASSIFICATION_TYPE = U
NORAD_CAT_ID   = 44364
ELEMENT_SET_NO = 999
REV_AT_EPOCH   = 8331
BSTAR          = .82861E-4
MEAN_MOTION_DOT = .5436E-4
MEAN_MOTION_DDOT = 0

CCSDS_OMM_VERS = 2.0
CREATION_DATE  = 
ORIGINATOR     = 

OBJECT_NAME    = IOD-1 GEMS
OBJECT_ID      = 1998-067QK
CENTER_NAME    = EARTH
REF_FRAME      = TEME
TIME_SYSTEM    = UTC
MEAN_ELEMENT_THEORY = SGP/SGP4

EPOCH          = 2020-12-14T13:39:44.855424
MEAN_MOTION    = 15.71402312
ECCENTRICITY   = .0003621
INCLINATION    = 51.6353
RA_OF_ASC_NODE = 141.4107
ARG_OF_PERICENTER = 270.8713
MEAN_ANOMALY   = 89.1870

EPHEMERIS_TYPE = 0
CLASSIFICATION_TYPE = U
NORAD_CAT_ID   = 44385
ELEMENT_SET_NO = 999
REV_AT_EPOCH   = 8268
BSTAR          = .44388E-3
MEAN_MOTION_DOT = .57621E-3
MEAN_MOTION_DDOT = 0

CCSDS_OMM_VERS = 2.0
CREATION_DATE  = 
ORIGINATOR     = 

OBJECT_NAME    = SWIATOWID
OBJECT_ID      = 1998-067QL
CENTER_NAME    = EARTH
REF_FRAME      = TEME
TIME_SYSTEM    = UTC
MEAN_ELEMENT_THEORY = SGP/SGP4

EPOCH          = 2020-12-14T23:42:23.177664
MEAN_MOTION    = 15.74706152
ECCENTRICITY   = .0004442
INCLINATION    = 51.6361
RA_OF_ASC_NODE = 136.4358
ARG_OF_PERICENTER = 265.5329
MEAN_ANOMALY   = 194.8797

EPHEMERIS_TYPE = 0
CLASSIFICATION_TYPE = U
NORAD_CAT_ID   = 44426
ELEMENT_SET_NO = 999
REV_AT_EPOCH   = 8279
BSTAR          = .59507E-3
MEAN_MOTION_DOT = .8963E-3
MEAN_MOTION_DDOT = 0

